[{"OBJECT_NAME":"FOSSASAT-2E20 (TAT-O)","OBJECT_ID":"2025-009DN","EPOCH":"2026-03-09T17:00:18.734688","MEAN_MOTION":15.2699108,"ECCENTRICITY":0.00021892,"INCLINATION":97.3231,"RA_OF_ASC_NODE":146.2859,"ARG_OF_PERICENTER":347.5575,"MEAN_ANOMALY":12.561,"EPHEMERIS_TYPE":0,"CLASSIFICATION_TYPE":"U","NORAD_CAT_ID":63003,"ELEMENT_SET_NO":999,"REV_AT_EPOCH":12131,"BSTAR":0.00061862572,"MEAN_MOTION_DOT":0.00016337,"MEAN_MOTION_DDOT":0},{"OBJECT_NAME":"STARLINK-36078","OBJECT_ID":"2025-294W","EPOCH":"2026-03-09T07:24:28.984320","MEAN_MOTION":15.27585363,"ECCENTRICITY":0.00013662,"INCLINATION":43.0053,"RA_OF_ASC_NODE":39.9878,"ARG_OF_PERICENTER":280.7022,"MEAN_ANOMALY":79.3676,"EPHEMERIS_TYPE":0,"CLASSIFICATION_TYPE":"U","NORAD_CAT_ID":67050,"ELEMENT_SET_NO":999,"REV_AT_EPOCH":1474,"BSTAR":0.00047667158,"MEAN_MOTION_DOT":0.0001288,"MEAN_MOTION_DDOT":0}]
